stk.v.4.3 

BEGIN Ephemeris 
 
NumberOfEphemerisPoints		146 
ScenarioEpoch	    3 Sep 2020 19:56: 7.056678236 
InterpolationMethod		Lagrange 
InterpolationOrder		5 
CentralBody				Earth 
CoordinateSystem			TEME 
CoordinateSystemEpoch	  3 Sep 2020 19:56: 7.056678236 
DistanceUnit			Kilometers 
 
EphemerisTimePosVel 
 
       0.00000000   -6560.19971949    2865.69601366       0.04362729 -0.178626260 -0.432730847  7.448839613
 END Ephemeris 
